#aV2008  2 21  0  0   .00000000      96 DD+AD WGS84 FIT  NGA
## 1467 345600.00000000   900.00000000 54517  .0000000000000
+   31     1  2  3  4  5  6  8  9 10 11 12 13 14 15 16 17 18
+         19 20 21 22 23 24 25 26 27 28 29 30 31 32  0  0  0
+          0  0  0  0  0  0  0  0  0  0  0  0  0  0  0  0  0
+          0  0  0  0  0  0  0  0  0  0  0  0  0  0  0  0  0
+          0  0  0  0  0  0  0  0  0  0  0  0  0  0  0  0  0
++         0  0  0  0  0  0  0  0  0  0  0  0  0  0  0  0  0
++         0  0  0  0  0  0  0  0  0  0  0  0  0  0  0  0  0
++         0  0  0  0  0  0  0  0  0  0  0  0  0  0  0  0  0
++         0  0  0  0  0  0  0  0  0  0  0  0  0  0  0  0  0
++         0  0  0  0  0  0  0  0  0  0  0  0  0  0  0  0  0
%c cc cc ccc ccc cccc cccc cccc cccc ccccc ccccc ccccc ccccc
%c cc cc ccc ccc cccc cccc cccc cccc ccccc ccccc ccccc ccccc
%f  0.0000000  0.000000000  0.00000000000  0.000000000000000
%f  0.0000000  0.000000000  0.00000000000  0.000000000000000
%i    0    0    0    0      0      0      0      0         0
%i    0    0    0    0      0      0      0      0         0
/*      NGA, ST. LOUIS,MO.                                  
/*   EPHEMERIS COMPUTED FROM  3 DAYS OF DATA                
/* CCCCCCCCCCCCCCCCCCCCCCCCCCCCCCCCCCCCCCCCCCCCCCCCCCCCCCCCC
/* CCCCCCCCCCCCCCCCCCCCCCCCCCCCCCCCCCCCCCCCCCCCCCCCCCCCCCCCC
*  2008  2 21  1 15   .00000000                                                 
P  1  -9258.052047 -15223.768793  19939.670439    187.101673                    
V  1  24382.657695   4254.482143  14663.840610       .025126                    
P  2  12982.013854  22926.520087  -4742.396845    176.028598                    
V  2   -601.751001   6453.129237  30395.182695       .030414                    
P  3 -19524.689150 -11601.431556 -14294.362977    190.060999                    
V  3  17786.589449  -1825.304859 -22871.248720       .051929                    
P  4   4607.592857  25126.721998   6442.306596    -12.501166                    
V  4  -6319.678673  -6584.860290  30127.530019      -.067469                    
P  5  19372.041625 -12347.681758  12943.254851    696.444747                    
V  5  -6893.463173  15764.568293  24994.779262       .138532                    
P  6  11983.569572 -13237.907516 -19522.390908     31.286404                    
V  6  24916.455658   4151.754090  12327.855940       .175091                    
P  8  -2510.043575  22153.005883 -14154.171549   -141.844336                    
V  8  -7582.002330 -16409.638002 -24937.996012      -.015547                    
P  9  16786.303340   5235.929594  19342.653472    111.482811                    
V  9   9299.421865  24133.143692 -13991.637690       .017177                    
P 10  10576.586542  10960.209928 -21872.725224   -250.088948                    
V 10 -17861.440717  20870.868770   2159.682375      -.067846                    
P 11 -18454.721475   -462.054230  19039.062188     26.986480                    
V 11 -11656.805638 -21855.927275 -11410.704522      -.001346                    
P 12  19815.182943  -6481.204692  16502.746982   -356.890886                    
V 12 -11537.634220  17407.294912  20885.786224      -.007157                    
P 13 -18978.237212   7592.435121 -17050.066712    241.296622                    
V 13 -20786.494476  -5124.543637  21016.394344       .020660                    
P 14   2378.300955 -14439.864690  22266.281875   -295.455024                    
V 14  27515.698291   4870.003159    132.934988       .038098                    
P 15  25221.466954   6821.102917  -4743.516701    -78.424444                    
V 15  -6390.549264   2002.347142 -30925.113736      -.030953                    
P 16  -6606.934103 -14784.589689 -20940.989831    132.743128                    
V 16  17664.872364 -20158.885363   8808.139157      -.002550                    
P 17  -2912.480489  14970.163074  21768.984360     42.216433                    
V 17 -27222.932798  -4459.363607   -727.524299      -.008048                    
P 18  17887.344217 -19308.796555  -1408.446634   -202.720516                    
V 18   1340.522414   3800.931355 -31658.864749       .030754                    
P 19 -25021.929247  -8270.125412  -3891.201611     21.538366                    
V 19   5491.954547  -1604.820603 -31066.441332       .013682                    
P 20 -20160.026995   9113.349540  14544.860694    120.157542                    
V 20   9481.629703 -16320.023798  23234.254018      -.007838                    
P 21   9078.064980 -15810.179625 -18948.583271     71.243299                    
V 21  10302.151291  22518.201743 -14331.836250      -.008371                    
P 22   8689.127837 -22443.339454  11345.452962    208.725024                    
V 22  11413.706893  -8915.727836 -26780.086535       .003536                    
P 23 -26215.510846   -479.573404  -5028.772284    335.586537                    
V 23  -5852.665566  -3120.704006  30994.320562       .027661                    
P 24  15093.965727  -2955.840365 -21465.977463     72.140147                    
V 24   8489.149578  26382.524036   2599.964954       .030607                    
P 25 -12591.452915   8253.559514 -21516.144371    515.305641                    
V 25 -12901.547514 -25071.587343  -1862.551413       .061660                    
P 26  23680.400577   9999.222712  -8216.297509    188.642703                    
V 26  -9646.147260   -713.020858 -29873.602237       .098436                    
P 27  -7825.529373  15181.468722 -19622.993648    169.234725                    
V 27 -12356.739103 -23412.589915 -12914.759457       .025164                    
P 28 -10327.507671  22531.080396   9426.321644    -15.422576                    
V 28  -9452.581388   7147.789351 -28907.434180      -.005457                    
P 29  21867.762243  -6043.819768 -13674.577037    -57.515589                    
V 29  16953.612783   5133.581449  24659.922655       .049802                    
P 30  18842.488729 -17096.308092   7106.925902     64.646515                    
V 30  -3045.594895   9549.887717  29765.336031       .015055                    
P 31  -6404.055924 -25277.497868   4977.412558     -9.961759                    
V 31   4705.020362   4654.329572  31096.292326      -.013703                    
P 32    235.655989 -19149.473995  18925.730579    233.115921                    
V 32  16577.475409 -16015.855576 -16638.490518       .089081                    
EOF
